[{"OBJECT_NAME":"STARLINK-32907","OBJECT_ID":"2025-037U","EPOCH":"2026-03-09T23:27:38.313792","MEAN_MOTION":14.98328846,"ECCENTRICITY":0.00025483,"INCLINATION":70.0033,"RA_OF_ASC_NODE":353.7855,"ARG_OF_PERICENTER":260.1337,"MEAN_ANOMALY":99.9535,"EPHEMERIS_TYPE":0,"CLASSIFICATION_TYPE":"U","NORAD_CAT_ID":63095,"ELEMENT_SET_NO":999,"REV_AT_EPOCH":5859,"BSTAR":0.00026248806,"MEAN_MOTION_DOT":3.04e-5,"MEAN_MOTION_DDOT":0},{"OBJECT_NAME":"LACUNASAT-4D","OBJECT_ID":"2025-276DW","EPOCH":"2026-03-09T17:30:33.252192","MEAN_MOTION":14.98548204,"ECCENTRICITY":0.00108499,"INCLINATION":97.5312,"RA_OF_ASC_NODE":142.8344,"ARG_OF_PERICENTER":115.0636,"MEAN_ANOMALY":245.1714,"EPHEMERIS_TYPE":0,"CLASSIFICATION_TYPE":"U","NORAD_CAT_ID":66781,"ELEMENT_SET_NO":999,"REV_AT_EPOCH":772,"BSTAR":0.00086123106,"MEAN_MOTION_DOT":0.00010278,"MEAN_MOTION_DDOT":0}]
